QIANFAN-25              
1 61558U 24185G   26005.13849851  .00000559  00000+0  33333-3 0  9993
2 61558  88.9784  75.5448 0008255 228.6064 131.4409 14.05930943 72797
QIANFAN-26              
1 61559U 24185H   26005.20572491  .00000150  00000+0  13685-3 0  9990
2 61559  88.9796  77.2222 0003771 309.9171  50.1664 13.77825310 71901
QIANFAN-27              
1 61560U 24185J   26005.16354525  .00000808  00000+0  32397-3 0  9994
2 61560  88.9787  74.2007 0007125 195.5758 164.5218 14.27368007 73502
QIANFAN-28              
1 61561U 24185K   26005.13406208  .00001199  00000+0  47683-3 0  9996
2 61561  88.9805  74.2092 0006648 193.9622 166.1390 14.28090940 73518
QIANFAN-29              
1 61562U 24185L   26005.14273818  .00000230  00000+0  33730-3 0  9990
2 61562  88.9773  78.8963 0009162 353.8526   6.2512 13.51021187 70951
QIANFAN-30              
1 61563U 24185M   26005.20944516  .00000235  00000+0  35044-3 0  9993
2 61563  88.9794  78.4239 0006400 340.8310  19.2599 13.49996977 71232
QIANFAN-31              
1 61564U 24185N   26005.18743550  .00000260  00000+0  34335-3 0  9996
2 61564  88.9776  78.1908 0005515 334.8409  25.2477 13.57976861 71344
QIANFAN-32              
1 61565U 24185P   26005.16492183  .00000242  00000+0  35784-3 0  9997
2 61565  88.9836  78.5696 0009079   8.0244 352.1051 13.50744767 71202
